{
  "last_updated": "2026-06-12T06:00:03.095074",
  "satellites": {
    "98592": {
      "name": "DUTHSat-2",
      "norad_id": "98592",
      "tle": "1 64530U 25135C   26162.82127241  .00011815  00000-0  45110-3 0  9998\n2 64530  97.4610 278.7342 0004748 193.0840 167.0276 15.26791261 54118",
      "epoch": "2026-06-11T19:42:37.936224",
      "fetched_at": "2026-06-12T06:00:03.261361",
      "source": "satnogs"
    },
    "98530": {
      "name": "LAMARR",
      "norad_id": "98530",
      "tle": "1 66673U 25276H   26026.90917087  .00034524  00000-0  16680-2 0  9998\n2 66673  97.4301 102.8338 0007597 141.5941 218.5835 15.18529012  8972",
      "epoch": "2026-01-26T21:49:12.363168",
      "fetched_at": "2026-01-28T06:00:02.884758",
      "source": "satnogs",
      "note": "Using previous TLE (fetch/manual failed today)"
    },
    "98529": {
      "name": "DIRAC",
      "norad_id": "98529",
      "tle": "1 66681U 25276R   26026.63281774  .00024563  00000-0  11745-2 0  9993\n2 66681  97.4280 102.5712 0006320 148.4115 211.7500 15.18972786  8932",
      "epoch": "2026-01-26T15:11:15.452736",
      "fetched_at": "2026-01-28T06:00:02.937152",
      "source": "satnogs",
      "note": "Using previous TLE (fetch/manual failed today)"
    },
    "98518": {
      "name": "MICE-1",
      "norad_id": "98518",
      "tle": "1 66684U 25276U   26162.18532074  .00002906  00000-0  14150-3 0  9990\n2 66684  97.4273 235.9133 0005942  31.2382 328.9205 15.19148606 29505",
      "epoch": "2026-06-11T04:26:51.711936",
      "fetched_at": "2026-06-12T06:00:03.437016",
      "source": "satnogs"
    },
    "68416": {
      "name": "PeakSat",
      "norad_id": "68416",
      "tle": "1 68416U 26067A   26162.82338369  .00006543  00000-0  31209-3 0  9991\n2 68416  97.4538 121.4689 0000684   5.8402 354.2841 15.19416452 11132",
      "epoch": "2026-06-11T19:45:40.350816",
      "fetched_at": "2026-06-12T06:00:03.500410",
      "source": "satnogs"
    },
    "98370": {
      "name": "OptiSat",
      "norad_id": "98370",
      "tle": "1 69696U 69696    26089.46895426  .00000000  00000-0  00000-0 0 00004\n2 69696 097.4414 038.3720 0003145 156.7651 191.1423 15.18459822000011",
      "epoch": "2026-03-30T11:15:17.648064",
      "fetched_at": "2026-04-17T12:47:18.541523",
      "source": "manual"
    },
    "68468": {
      "name": "ERMIS-1",
      "norad_id": "68468",
      "tle": "1 68468U 26067BE  26162.85005419  .00007937  00000-0  39754-3 0  9999\n2 68468  97.4539 121.2928 0008956  79.3799 280.8443 15.17612711 11124",
      "epoch": "2026-06-11T20:24:04.682016",
      "fetched_at": "2026-06-12T06:00:03.562245",
      "source": "satnogs"
    },
    "68420": {
      "name": "ERMIS-2",
      "norad_id": "68420",
      "tle": "1 68420U 26067E   26162.88683481  .00009364  00000-0  44191-3 0  9998\n2 68420  97.4470 121.4792 0000969  96.8459 263.2886 15.19669573 11148",
      "epoch": "2026-06-11T21:17:02.527584",
      "fetched_at": "2026-06-12T06:00:03.623879",
      "source": "satnogs"
    },
    "98367": {
      "name": "ERMIS-3",
      "norad_id": "98367",
      "tle": "1 68425U 26067K   26162.85032111  .00004620  00000-0  22574-3 0  9999\n2 68425  97.4579 121.4741 0002274  48.5729 311.5701 15.18734268 11137",
      "epoch": "2026-06-11T20:24:27.743904",
      "fetched_at": "2026-06-12T06:00:03.684041",
      "source": "satnogs"
    },
    "69021": {
      "name": "Helios",
      "norad_id": "69021",
      "tle": "1 69021U 26100AT  26162.70918993  .00006615  00000-0  31063-3 0  9994\n2 69021  97.4040  60.5842 0005315  29.4754 330.6780 15.19945318  5978",
      "epoch": "2026-06-11T17:01:14.009952",
      "fetched_at": "2026-06-12T06:00:03.744393",
      "source": "satnogs"
    },
    "69020": {
      "name": "Selene",
      "norad_id": "69020",
      "tle": "1 69020U 26100AS  26162.71183768  .00005573  00000-0  26327-3 0  9997\n2 69020  97.4055  60.5916 0004578  26.3314 333.8153 15.19812149  5977",
      "epoch": "2026-06-11T17:05:02.775552",
      "fetched_at": "2026-06-12T06:00:03.804259",
      "source": "satnogs"
    }
  },
  "fetch_log": []
}